[{"OBJECT_NAME":"EROS C3","OBJECT_ID":"2022-179A","EPOCH":"2026-03-09T22:55:46.034688","MEAN_MOTION":15.11815462,"ECCENTRICITY":0.00031674,"INCLINATION":139.3349,"RA_OF_ASC_NODE":157.9345,"ARG_OF_PERICENTER":31.9169,"MEAN_ANOMALY":328.1831,"EPHEMERIS_TYPE":0,"CLASSIFICATION_TYPE":"U","NORAD_CAT_ID":54880,"ELEMENT_SET_NO":999,"REV_AT_EPOCH":17731,"BSTAR":0.00041429699,"MEAN_MOTION_DOT":7.479e-5,"MEAN_MOTION_DDOT":0},{"OBJECT_NAME":"STARLINK-5758","OBJECT_ID":"2023-042BD","EPOCH":"2026-03-09T22:00:01.999584","MEAN_MOTION":15.13114236,"ECCENTRICITY":4.716e-5,"INCLINATION":43.0012,"RA_OF_ASC_NODE":28.418,"ARG_OF_PERICENTER":279.7474,"MEAN_ANOMALY":275.8474,"EPHEMERIS_TYPE":0,"CLASSIFICATION_TYPE":"U","NORAD_CAT_ID":56037,"ELEMENT_SET_NO":999,"REV_AT_EPOCH":573,"BSTAR":0.0040469381,"MEAN_MOTION_DOT":0.00073478,"MEAN_MOTION_DDOT":0}]
